BONUM-1                 
1 25546U 98068A   24125.50788021  .00000013  00000+0  00000+0 0  9990
2 25546   9.2538  52.9212 0005736   3.3293 248.1953  0.99035725 92860
